{
  "type": "FeatureCollection",
  "features": [
    {
      "type": "Feature",
      "geometry": {
        "type": "Point",
        "coordinates": [
          24.770952,
          60.15388
        ]
      },
      "properties": {
        "mmsi": 230059760,
        "name": "RESCUE EMMI",
        "sog": 0.0,
        "cog": 198.1,
        "heading": 257,
        "timestamp": "1790790010086"
      }
    },
    {
      "type": "Feature",
      "geometry": {
        "type": "Point",
        "coordinates": [
          25.145535,
          60.06006
        ]
      },
      "properties": {
        "mmsi": 230685000,
        "name": "FINBO CARGO",
        "sog": 19.1,
        "cog": 200.7,
        "heading": 201,
        "timestamp": "1790790011293"
      }
    },
    {
      "type": "Feature",
      "geometry": {
        "type": "Point",
        "coordinates": [
          26.488233,
          60.145
        ]
      },
      "properties": {
        "mmsi": 352002665,
        "name": "ELIM JOYCE",
        "sog": 0.1,
        "cog": 184.0,
        "heading": 143,
        "timestamp": "1790789965510"
      }
    },
    {
      "type": "Feature",
      "geometry": {
        "type": "Point",
        "coordinates": [
          24.708512,
          59.457958
        ]
      },
      "properties": {
        "mmsi": 276260000,
        "name": "NAFTA",
        "sog": 0.0,
        "cog": 176.3,
        "heading": 253,
        "timestamp": "1790790012885"
      }
    },
    {
      "type": "Feature",
      "geometry": {
        "type": "Point",
        "coordinates": [
          24.747688,
          59.807345
        ]
      },
      "properties": {
        "mmsi": 244110823,
        "name": "LADY HANNEKE",
        "sog": 8.2,
        "cog": 264.9,
        "heading": 264,
        "timestamp": "1790790014228"
      }
    },
    {
      "type": "Feature",
      "geometry": {
        "type": "Point",
        "coordinates": [
          24.692165,
          59.681713
        ]
      },
      "properties": {
        "mmsi": 276829000,
        "name": "MEGASTAR",
        "sog": 22.7,
        "cog": 192.3,
        "heading": 191,
        "timestamp": "1790790012474"
      }
    },
    {
      "type": "Feature",
      "geometry": {
        "type": "Point",
        "coordinates": [
          24.973757,
          60.10495
        ]
      },
      "properties": {
        "mmsi": 230125910,
        "name": "PILOT L-139",
        "sog": 0.0,
        "cog": 83.3,
        "heading": 164,
        "timestamp": "1790790015298"
      }
    },
    {
      "type": "Feature",
      "geometry": {
        "type": "Point",
        "coordinates": [
          26.445297,
          60.275248
        ]
      },
      "properties": {
        "mmsi": 230193440,
        "name": "L253",
        "sog": 0.0,
        "cog": 123.2,
        "heading": 219,
        "timestamp": "1790790010756"
      }
    },
    {
      "type": "Feature",
      "geometry": {
        "type": "Point",
        "coordinates": [
          25.011808,
          60.166003
        ]
      },
      "properties": {
        "mmsi": 230994870,
        "name": "KOKAR",
        "sog": 0.2,
        "cog": 149.0,
        "heading": 135,
        "timestamp": "1790790012255"
      }
    },
    {
      "type": "Feature",
      "geometry": {
        "type": "Point",
        "coordinates": [
          25.779017,
          59.877412
        ]
      },
      "properties": {
        "mmsi": 245897000,
        "name": "PLYCA",
        "sog": 11.9,
        "cog": 75.4,
        "heading": 77,
        "timestamp": "1790790009428"
      }
    },
    {
      "type": "Feature",
      "geometry": {
        "type": "Point",
        "coordinates": [
          24.954333,
          59.778657
        ]
      },
      "properties": {
        "mmsi": 212963000,
        "name": "WES GESA",
        "sog": 8.9,
        "cog": 78.9,
        "heading": 76,
        "timestamp": "1790790007944"
      }
    },
    {
      "type": "Feature",
      "geometry": {
        "type": "Point",
        "coordinates": [
          24.814013,
          59.49936
        ]
      },
      "properties": {
        "mmsi": 276001840,
        "name": "SUNRAY",
        "sog": 0.0,
        "cog": 237.4,
        "heading": 511,
        "timestamp": "1790790008467"
      }
    },
    {
      "type": "Feature",
      "geometry": {
        "type": "Point",
        "coordinates": [
          24.952667,
          59.521333
        ]
      },
      "properties": {
        "mmsi": 246843000,
        "name": "MARFAAM",
        "sog": 6.8,
        "cog": 149.5,
        "heading": 147,
        "timestamp": "1790790015036"
      }
    },
    {
      "type": "Feature",
      "geometry": {
        "type": "Point",
        "coordinates": [
          26.180235,
          59.974725
        ]
      },
      "properties": {
        "mmsi": 461000238,
        "name": "AMULET",
        "sog": 12.6,
        "cog": 255.3,
        "heading": 254,
        "timestamp": "1790790009779"
      }
    },
    {
      "type": "Feature",
      "geometry": {
        "type": "Point",
        "coordinates": [
          25.55053,
          59.849243
        ]
      },
      "properties": {
        "mmsi": 667002511,
        "name": "GREGAL",
        "sog": 5.2,
        "cog": 74.6,
        "heading": 77,
        "timestamp": "1790790013087"
      }
    },
    {
      "type": "Feature",
      "geometry": {
        "type": "Point",
        "coordinates": [
          24.990698,
          60.135712
        ]
      },
      "properties": {
        "mmsi": 230705000,
        "name": "VIKING XPRS",
        "sog": 14.1,
        "cog": 198.0,
        "heading": 198,
        "timestamp": "1790790017261"
      }
    },
    {
      "type": "Feature",
      "geometry": {
        "type": "Point",
        "coordinates": [
          24.672467,
          59.450667
        ]
      },
      "properties": {
        "mmsi": 276636000,
        "name": "ARKTURUS",
        "sog": 0.0,
        "cog": 231.4,
        "heading": 134,
        "timestamp": "1790790007989"
      }
    },
    {
      "type": "Feature",
      "geometry": {
        "type": "Point",
        "coordinates": [
          26.958583,
          60.472578
        ]
      },
      "properties": {
        "mmsi": 230113940,
        "name": "PILOT L133",
        "sog": 0.0,
        "cog": 19.9,
        "heading": 292,
        "timestamp": "1790790008418"
      }
    },
    {
      "type": "Feature",
      "geometry": {
        "type": "Point",
        "coordinates": [
          25.552178,
          60.310972
        ]
      },
      "properties": {
        "mmsi": 230286000,
        "name": "ESKO",
        "sog": 0.0,
        "cog": 248.6,
        "heading": 183,
        "timestamp": "1790790013784"
      }
    },
    {
      "type": "Feature",
      "geometry": {
        "type": "Point",
        "coordinates": [
          26.020142,
          59.879158
        ]
      },
      "properties": {
        "mmsi": 636026647,
        "name": "LOURDAS BAY",
        "sog": 0.0,
        "cog": 8.1,
        "heading": 106,
        "timestamp": "1790789994692"
      }
    },
    {
      "type": "Feature",
      "geometry": {
        "type": "Point",
        "coordinates": [
          25.662997,
          59.828748
        ]
      },
      "properties": {
        "mmsi": 636018491,
        "name": "MSC KAYLA",
        "sog": 0.1,
        "cog": 32.8,
        "heading": 117,
        "timestamp": "1790790014638"
      }
    },
    {
      "type": "Feature",
      "geometry": {
        "type": "Point",
        "coordinates": [
          25.139962,
          59.805257
        ]
      },
      "properties": {
        "mmsi": 311002321,
        "name": "YANGTZE DORA",
        "sog": 9.4,
        "cog": 73.3,
        "heading": 77,
        "timestamp": "1790790017129"
      }
    },
    {
      "type": "Feature",
      "geometry": {
        "type": "Point",
        "coordinates": [
          24.970195,
          60.168705
        ]
      },
      "properties": {
        "mmsi": 230014910,
        "name": "MT1310",
        "sog": 0.0,
        "cog": 327.5,
        "heading": 511,
        "timestamp": "1790790016508"
      }
    },
    {
      "type": "Feature",
      "geometry": {
        "type": "Point",
        "coordinates": [
          24.073777,
          59.387192
        ]
      },
      "properties": {
        "mmsi": 276342000,
        "name": "VIIKING",
        "sog": 0.0,
        "cog": 339.7,
        "heading": 511,
        "timestamp": "1790790016201"
      }
    },
    {
      "type": "Feature",
      "geometry": {
        "type": "Point",
        "coordinates": [
          25.190722,
          60.216502
        ]
      },
      "properties": {
        "mmsi": 230697000,
        "name": "FINNECO II",
        "sog": 0.0,
        "cog": 311.9,
        "heading": 140,
        "timestamp": "1790789997279"
      }
    },
    {
      "type": "Feature",
      "geometry": {
        "type": "Point",
        "coordinates": [
          25.184,
          60.206123
        ]
      },
      "properties": {
        "mmsi": 230111190,
        "name": "MERIHOYLA",
        "sog": 0.0,
        "cog": 222.5,
        "heading": 511,
        "timestamp": "1790789998759"
      }
    },
    {
      "type": "Feature",
      "geometry": {
        "type": "Point",
        "coordinates": [
          26.445537,
          60.275148
        ]
      },
      "properties": {
        "mmsi": 230045240,
        "name": "PILOT L149",
        "sog": 0.0,
        "cog": 25.5,
        "heading": 220,
        "timestamp": "1790790016998"
      }
    },
    {
      "type": "Feature",
      "geometry": {
        "type": "Point",
        "coordinates": [
          26.383352,
          60.19421
        ]
      },
      "properties": {
        "mmsi": 255916295,
        "name": "OSLO CARRIER 2",
        "sog": 9.1,
        "cog": 21.3,
        "heading": 25,
        "timestamp": "1790789998584"
      }
    },
    {
      "type": "Feature",
      "geometry": {
        "type": "Point",
        "coordinates": [
          24.974202,
          60.105287
        ]
      },
      "properties": {
        "mmsi": 230180500,
        "name": "PILOT L250",
        "sog": 0.0,
        "cog": 83.1,
        "heading": 17,
        "timestamp": "1790790009911"
      }
    },
    {
      "type": "Feature",
      "geometry": {
        "type": "Point",
        "coordinates": [
          24.866983,
          59.908777
        ]
      },
      "properties": {
        "mmsi": 276859000,
        "name": "MYSTAR",
        "sog": 22.3,
        "cog": 8.0,
        "heading": 8,
        "timestamp": "1790790014003"
      }
    },
    {
      "type": "Feature",
      "geometry": {
        "type": "Point",
        "coordinates": [
          24.669595,
          59.451732
        ]
      },
      "properties": {
        "mmsi": 276005340,
        "name": "AHTO-15",
        "sog": 0.0,
        "cog": 213.2,
        "heading": 31,
        "timestamp": "1790790009428"
      }
    },
    {
      "type": "Feature",
      "geometry": {
        "type": "Point",
        "coordinates": [
          26.945475,
          60.477578
        ]
      },
      "properties": {
        "mmsi": 230245000,
        "name": "FENNICA",
        "sog": 0.0,
        "cog": 147.5,
        "heading": 296,
        "timestamp": "1790790004698"
      }
    },
    {
      "type": "Feature",
      "geometry": {
        "type": "Point",
        "coordinates": [
          26.88637,
          59.99867
        ]
      },
      "properties": {
        "mmsi": 572728220,
        "name": "ZEYNEP",
        "sog": 12.6,
        "cog": 278.6,
        "heading": 285,
        "timestamp": "1790790013478"
      }
    },
    {
      "type": "Feature",
      "geometry": {
        "type": "Point",
        "coordinates": [
          26.530545,
          60.289078
        ]
      },
      "properties": {
        "mmsi": 246278000,
        "name": "BORE WAVE",
        "sog": 13.6,
        "cog": 227.7,
        "heading": 229,
        "timestamp": "1790790014681"
      }
    },
    {
      "type": "Feature",
      "geometry": {
        "type": "Point",
        "coordinates": [
          25.661967,
          60.389325
        ]
      },
      "properties": {
        "mmsi": 230109840,
        "name": "J.L.RUNEBERG",
        "sog": 0.0,
        "cog": 32.2,
        "heading": 338,
        "timestamp": "1790790008077"
      }
    },
    {
      "type": "Feature",
      "geometry": {
        "type": "Point",
        "coordinates": [
          25.540803,
          60.268418
        ]
      },
      "properties": {
        "mmsi": 219034372,
        "name": "TERN DAL",
        "sog": 0.0,
        "cog": 70.6,
        "heading": 20,
        "timestamp": "1790790011162"
      }
    },
    {
      "type": "Feature",
      "geometry": {
        "type": "Point",
        "coordinates": [
          25.223067,
          59.833883
        ]
      },
      "properties": {
        "mmsi": 266471000,
        "name": "TELLUS",
        "sog": 13.2,
        "cog": 47.7,
        "heading": 48,
        "timestamp": "1790790015167"
      }
    },
    {
      "type": "Feature",
      "geometry": {
        "type": "Point",
        "coordinates": [
          26.9618,
          60.461417
        ]
      },
      "properties": {
        "mmsi": 230018360,
        "name": "RESCUE KOTKA",
        "sog": 0.0,
        "cog": 234.5,
        "heading": 299,
        "timestamp": "1790790008511"
      }
    },
    {
      "type": "Feature",
      "geometry": {
        "type": "Point",
        "coordinates": [
          26.963802,
          60.460272
        ]
      },
      "properties": {
        "mmsi": 230942840,
        "name": "OTAVA",
        "sog": 0.0,
        "cog": 136.6,
        "heading": 187,
        "timestamp": "1790790008906"
      }
    },
    {
      "type": "Feature",
      "geometry": {
        "type": "Point",
        "coordinates": [
          24.969688,
          60.16917
        ]
      },
      "properties": {
        "mmsi": 230151360,
        "name": "ARAMIS",
        "sog": 0.0,
        "cog": 0.0,
        "heading": 511,
        "timestamp": "1790790007900"
      }
    },
    {
      "type": "Feature",
      "geometry": {
        "type": "Point",
        "coordinates": [
          24.974405,
          60.170143
        ]
      },
      "properties": {
        "mmsi": 230252000,
        "name": "OTSO",
        "sog": 0.0,
        "cog": 349.0,
        "heading": 243,
        "timestamp": "1790790012999"
      }
    },
    {
      "type": "Feature",
      "geometry": {
        "type": "Point",
        "coordinates": [
          26.43309,
          60.274322
        ]
      },
      "properties": {
        "mmsi": 230093090,
        "name": "PILOT L243",
        "sog": 20.9,
        "cog": 190.8,
        "heading": 181,
        "timestamp": "1790790017461"
      }
    },
    {
      "type": "Feature",
      "geometry": {
        "type": "Point",
        "coordinates": [
          25.260787,
          59.820968
        ]
      },
      "properties": {
        "mmsi": 215468000,
        "name": "STAVROS",
        "sog": 12.2,
        "cog": 78.3,
        "heading": 79,
        "timestamp": "1790790012120"
      }
    },
    {
      "type": "Feature",
      "geometry": {
        "type": "Point",
        "coordinates": [
          24.962272,
          59.526018
        ]
      },
      "properties": {
        "mmsi": 210028000,
        "name": "CONTSHIPS BOREALIS",
        "sog": 13.3,
        "cog": 326.7,
        "heading": 327,
        "timestamp": "1790790008077"
      }
    },
    {
      "type": "Feature",
      "geometry": {
        "type": "Point",
        "coordinates": [
          24.8168,
          59.498987
        ]
      },
      "properties": {
        "mmsi": 276306000,
        "name": "IKLA",
        "sog": 0.0,
        "cog": 152.1,
        "heading": 316,
        "timestamp": "1790790010173"
      }
    },
    {
      "type": "Feature",
      "geometry": {
        "type": "Point",
        "coordinates": [
          24.911215,
          59.555298
        ]
      },
      "properties": {
        "mmsi": 276756000,
        "name": "AHTO-28",
        "sog": 6.4,
        "cog": 147.0,
        "heading": 147,
        "timestamp": "1790790010611"
      }
    },
    {
      "type": "Feature",
      "geometry": {
        "type": "Point",
        "coordinates": [
          26.11848,
          59.92086
        ]
      },
      "properties": {
        "mmsi": 256372000,
        "name": "LOVELY LADY",
        "sog": 5.8,
        "cog": 81.0,
        "heading": 78,
        "timestamp": "1790790008555"
      }
    },
    {
      "type": "Feature",
      "geometry": {
        "type": "Point",
        "coordinates": [
          26.917717,
          60.437515
        ]
      },
      "properties": {
        "mmsi": 276858000,
        "name": "SELENE",
        "sog": 0.0,
        "cog": 195.4,
        "heading": 75,
        "timestamp": "1790790011337"
      }
    },
    {
      "type": "Feature",
      "geometry": {
        "type": "Point",
        "coordinates": [
          25.62381,
          60.205678
        ]
      },
      "properties": {
        "mmsi": 230193670,
        "name": "L252",
        "sog": 0.0,
        "cog": 277.3,
        "heading": 157,
        "timestamp": "1790790011040"
      }
    },
    {
      "type": "Feature",
      "geometry": {
        "type": "Point",
        "coordinates": [
          24.955952,
          60.167243
        ]
      },
      "properties": {
        "mmsi": 230108610,
        "name": "SUOKKI",
        "sog": 0.0,
        "cog": 260.8,
        "heading": 173,
        "timestamp": "1790790012343"
      }
    },
    {
      "type": "Feature",
      "geometry": {
        "type": "Point",
        "coordinates": [
          25.334143,
          60.185435
        ]
      },
      "properties": {
        "mmsi": 230939100,
        "name": "RESCUE RAUTAUOMA",
        "sog": 28.8,
        "cog": 282.6,
        "heading": 282,
        "timestamp": "1790790015578"
      }
    },
    {
      "type": "Feature",
      "geometry": {
        "type": "Point",
        "coordinates": [
          26.445462,
          60.275177
        ]
      },
      "properties": {
        "mmsi": 230060890,
        "name": "PILOT L150",
        "sog": 0.0,
        "cog": 194.4,
        "heading": 511,
        "timestamp": "1790790011424"
      }
    },
    {
      "type": "Feature",
      "geometry": {
        "type": "Point",
        "coordinates": [
          25.62389,
          60.205867
        ]
      },
      "properties": {
        "mmsi": 230125940,
        "name": "PILOT L140",
        "sog": 0.0,
        "cog": 224.6,
        "heading": 511,
        "timestamp": "1790790013259"
      }
    },
    {
      "type": "Feature",
      "geometry": {
        "type": "Point",
        "coordinates": [
          25.756975,
          59.91547
        ]
      },
      "properties": {
        "mmsi": 273342810,
        "name": "KHOLMOGORY",
        "sog": 9.9,
        "cog": 260.0,
        "heading": 259,
        "timestamp": "1790790012606"
      }
    },
    {
      "type": "Feature",
      "geometry": {
        "type": "Point",
        "coordinates": [
          24.98361,
          60.14602
        ]
      },
      "properties": {
        "mmsi": 230044260,
        "name": "KALLE",
        "sog": 0.0,
        "cog": 0.0,
        "heading": 511,
        "timestamp": "1790790012701"
      }
    },
    {
      "type": "Feature",
      "geometry": {
        "type": "Point",
        "coordinates": [
          24.707935,
          59.459195
        ]
      },
      "properties": {
        "mmsi": 212673000,
        "name": "RIX VENTURE",
        "sog": 0.0,
        "cog": 27.4,
        "heading": 42,
        "timestamp": "1790789997017"
      }
    },
    {
      "type": "Feature",
      "geometry": {
        "type": "Point",
        "coordinates": [
          25.623313,
          60.206088
        ]
      },
      "properties": {
        "mmsi": 230111080,
        "name": "MT1304",
        "sog": 0.0,
        "cog": 71.1,
        "heading": 187,
        "timestamp": "1790790014594"
      }
    },
    {
      "type": "Feature",
      "geometry": {
        "type": "Point",
        "coordinates": [
          26.044533,
          59.984153
        ]
      },
      "properties": {
        "mmsi": 244584000,
        "name": "STATENGRACHT",
        "sog": 14.4,
        "cog": 219.3,
        "heading": 218,
        "timestamp": "1790790016158"
      }
    },
    {
      "type": "Feature",
      "geometry": {
        "type": "Point",
        "coordinates": [
          24.905625,
          60.131663
        ]
      },
      "properties": {
        "mmsi": 230628000,
        "name": "FINLANDIA",
        "sog": 14.9,
        "cog": 1.2,
        "heading": 2,
        "timestamp": "1790790015718"
      }
    },
    {
      "type": "Feature",
      "geometry": {
        "type": "Point",
        "coordinates": [
          25.79126,
          59.842955
        ]
      },
      "properties": {
        "mmsi": 511101557,
        "name": "YILDIZ",
        "sog": 0.1,
        "cog": 227.2,
        "heading": 145,
        "timestamp": "1790790007806"
      }
    },
    {
      "type": "Feature",
      "geometry": {
        "type": "Point",
        "coordinates": [
          26.891803,
          59.991215
        ]
      },
      "properties": {
        "mmsi": 311000776,
        "name": "SOUTHAMPTON REEFER",
        "sog": 17.1,
        "cog": 278.2,
        "heading": 279,
        "timestamp": "1790790015036"
      }
    },
    {
      "type": "Feature",
      "geometry": {
        "type": "Point",
        "coordinates": [
          24.809617,
          59.745425
        ]
      },
      "properties": {
        "mmsi": 305779000,
        "name": "KARILIN",
        "sog": 9.3,
        "cog": 72.7,
        "heading": 74,
        "timestamp": "1790790011040"
      }
    },
    {
      "type": "Feature",
      "geometry": {
        "type": "Point",
        "coordinates": [
          26.9639,
          60.460733
        ]
      },
      "properties": {
        "mmsi": 230991258,
        "name": "TEKLA I",
        "sog": 0.0,
        "cog": 360.0,
        "heading": 511,
        "timestamp": "1790790014725"
      }
    },
    {
      "type": "Feature",
      "geometry": {
        "type": "Point",
        "coordinates": [
          24.016892,
          59.665287
        ]
      },
      "properties": {
        "mmsi": 273398340,
        "name": "EDINIY",
        "sog": 6.2,
        "cog": 68.2,
        "heading": 73,
        "timestamp": "1790790017173"
      }
    },
    {
      "type": "Feature",
      "geometry": {
        "type": "Point",
        "coordinates": [
          24.974498,
          60.1052
        ]
      },
      "properties": {
        "mmsi": 230033880,
        "name": "PILOT L238",
        "sog": 0.0,
        "cog": 225.6,
        "heading": 26,
        "timestamp": "1790790016998"
      }
    },
    {
      "type": "Feature",
      "geometry": {
        "type": "Point",
        "coordinates": [
          25.55239,
          60.310488
        ]
      },
      "properties": {
        "mmsi": 230947000,
        "name": "AHTI",
        "sog": 0.0,
        "cog": 35.5,
        "heading": 180,
        "timestamp": "1790790017261"
      }
    },
    {
      "type": "Feature",
      "geometry": {
        "type": "Point",
        "coordinates": [
          24.718543,
          59.45735
        ]
      },
      "properties": {
        "mmsi": 276003580,
        "name": "AHTO- 07",
        "sog": 0.0,
        "cog": 233.0,
        "heading": 29,
        "timestamp": "1790790011293"
      }
    },
    {
      "type": "Feature",
      "geometry": {
        "type": "Point",
        "coordinates": [
          24.032085,
          59.652827
        ]
      },
      "properties": {
        "mmsi": 273214860,
        "name": "MARSHAL ROKOSSOVSKY",
        "sog": 13.7,
        "cog": 72.6,
        "heading": 73,
        "timestamp": "1790790017261"
      }
    },
    {
      "type": "Feature",
      "geometry": {
        "type": "Point",
        "coordinates": [
          24.961888,
          60.170777
        ]
      },
      "properties": {
        "mmsi": 230938640,
        "name": "INGEBORG",
        "sog": 0.0,
        "cog": 215.7,
        "heading": 511,
        "timestamp": "1790790010436"
      }
    },
    {
      "type": "Feature",
      "geometry": {
        "type": "Point",
        "coordinates": [
          24.94072,
          59.496838
        ]
      },
      "properties": {
        "mmsi": 276421000,
        "name": "MARS",
        "sog": 0.0,
        "cog": 341.5,
        "heading": 193,
        "timestamp": "1790790014047"
      }
    },
    {
      "type": "Feature",
      "geometry": {
        "type": "Point",
        "coordinates": [
          25.195095,
          60.213688
        ]
      },
      "properties": {
        "mmsi": 255806452,
        "name": "NORDIC ISTRIA",
        "sog": 0.0,
        "cog": 122.5,
        "heading": 139,
        "timestamp": "1790790017305"
      }
    },
    {
      "type": "Feature",
      "geometry": {
        "type": "Point",
        "coordinates": [
          24.179533,
          59.64509
        ]
      },
      "properties": {
        "mmsi": 314001082,
        "name": "BALOSA",
        "sog": 0.0,
        "cog": 9.7,
        "heading": 94,
        "timestamp": "1790790016508"
      }
    },
    {
      "type": "Feature",
      "geometry": {
        "type": "Point",
        "coordinates": [
          25.623733,
          60.205825
        ]
      },
      "properties": {
        "mmsi": 230151590,
        "name": "L246",
        "sog": 0.0,
        "cog": 160.5,
        "heading": 160,
        "timestamp": "1790790016464"
      }
    },
    {
      "type": "Feature",
      "geometry": {
        "type": "Point",
        "coordinates": [
          24.717092,
          59.458438
        ]
      },
      "properties": {
        "mmsi": 276158000,
        "name": "TARMO",
        "sog": 0.0,
        "cog": 360.0,
        "heading": 212,
        "timestamp": "1790789846038"
      }
    },
    {
      "type": "Feature",
      "geometry": {
        "type": "Point",
        "coordinates": [
          26.904698,
          60.424117
        ]
      },
      "properties": {
        "mmsi": 228492900,
        "name": "ECO PAMPERO",
        "sog": 0.0,
        "cog": 225.7,
        "heading": 319,
        "timestamp": "1790789979195"
      }
    },
    {
      "type": "Feature",
      "geometry": {
        "type": "Point",
        "coordinates": [
          24.939992,
          59.49769
        ]
      },
      "properties": {
        "mmsi": 276809000,
        "name": "ATLAS",
        "sog": 0.0,
        "cog": 185.5,
        "heading": 299,
        "timestamp": "1790790008652"
      }
    },
    {
      "type": "Feature",
      "geometry": {
        "type": "Point",
        "coordinates": [
          26.261127,
          60.402888
        ]
      },
      "properties": {
        "mmsi": 230992690,
        "name": "GRISSLAN",
        "sog": 0.0,
        "cog": 250.9,
        "heading": 31,
        "timestamp": "1790789883570"
      }
    },
    {
      "type": "Feature",
      "geometry": {
        "type": "Point",
        "coordinates": [
          24.655052,
          59.460797
        ]
      },
      "properties": {
        "mmsi": 246263000,
        "name": "AMURBORG",
        "sog": 0.0,
        "cog": 121.3,
        "heading": 121,
        "timestamp": "1790789909414"
      }
    },
    {
      "type": "Feature",
      "geometry": {
        "type": "Point",
        "coordinates": [
          25.914645,
          59.819478
        ]
      },
      "properties": {
        "mmsi": 636015227,
        "name": "LUCKY GRACE",
        "sog": 0.0,
        "cog": 275.6,
        "heading": 74,
        "timestamp": "1790790004360"
      }
    },
    {
      "type": "Feature",
      "geometry": {
        "type": "Point",
        "coordinates": [
          26.545537,
          59.526657
        ]
      },
      "properties": {
        "mmsi": 305284000,
        "name": "KRISTA",
        "sog": 0.0,
        "cog": 333.9,
        "heading": 28,
        "timestamp": "1790789844329"
      }
    },
    {
      "type": "Feature",
      "geometry": {
        "type": "Point",
        "coordinates": [
          26.042737,
          59.853188
        ]
      },
      "properties": {
        "mmsi": 352003737,
        "name": "SANTIYA",
        "sog": 0.0,
        "cog": 152.0,
        "heading": 82,
        "timestamp": "1790789848220"
      }
    },
    {
      "type": "Feature",
      "geometry": {
        "type": "Point",
        "coordinates": [
          24.655652,
          59.457165
        ]
      },
      "properties": {
        "mmsi": 276837000,
        "name": "AGAR",
        "sog": 0.0,
        "cog": 263.7,
        "heading": 511,
        "timestamp": "1790789948947"
      }
    },
    {
      "type": "Feature",
      "geometry": {
        "type": "Point",
        "coordinates": [
          24.962083,
          60.172118
        ]
      },
      "properties": {
        "mmsi": 230113760,
        "name": "KATHRINA",
        "sog": 0.0,
        "cog": 192.2,
        "heading": 107,
        "timestamp": "1790789983267"
      }
    },
    {
      "type": "Feature",
      "geometry": {
        "type": "Point",
        "coordinates": [
          24.94082,
          59.497255
        ]
      },
      "properties": {
        "mmsi": 276861000,
        "name": "HELIOS",
        "sog": 0.0,
        "cog": 269.7,
        "heading": 13,
        "timestamp": "1790789987285"
      }
    },
    {
      "type": "Feature",
      "geometry": {
        "type": "Point",
        "coordinates": [
          25.197897,
          60.220903
        ]
      },
      "properties": {
        "mmsi": 276718000,
        "name": "CASTOR",
        "sog": 0.0,
        "cog": 224.6,
        "heading": 41,
        "timestamp": "1790789988164"
      }
    },
    {
      "type": "Feature",
      "geometry": {
        "type": "Point",
        "coordinates": [
          25.025363,
          60.185122
        ]
      },
      "properties": {
        "mmsi": 230044550,
        "name": "YOLDIA",
        "sog": 0.0,
        "cog": 360.0,
        "heading": 511,
        "timestamp": "1790789989707"
      }
    },
    {
      "type": "Feature",
      "geometry": {
        "type": "Point",
        "coordinates": [
          24.960218,
          59.4926
        ]
      },
      "properties": {
        "mmsi": 636093386,
        "name": "ROSTRUM SAO PAULO",
        "sog": 0.0,
        "cog": 187.4,
        "heading": 130,
        "timestamp": "1790789982097"
      }
    },
    {
      "type": "Feature",
      "geometry": {
        "type": "Point",
        "coordinates": [
          25.46533,
          59.82487
        ]
      },
      "properties": {
        "mmsi": 538090702,
        "name": "BLUE SPIRIT",
        "sog": 0.0,
        "cog": 143.7,
        "heading": 118,
        "timestamp": "1790789983267"
      }
    },
    {
      "type": "Feature",
      "geometry": {
        "type": "Point",
        "coordinates": [
          26.973885,
          60.483472
        ]
      },
      "properties": {
        "mmsi": 245267000,
        "name": "LADY MONIQUE",
        "sog": 0.0,
        "cog": 325.6,
        "heading": 343,
        "timestamp": "1790789985289"
      }
    },
    {
      "type": "Feature",
      "geometry": {
        "type": "Point",
        "coordinates": [
          25.366612,
          59.807422
        ]
      },
      "properties": {
        "mmsi": 636025668,
        "name": "IONIAN SEA",
        "sog": 0.1,
        "cog": 195.7,
        "heading": 104,
        "timestamp": "1790790000398"
      }
    },
    {
      "type": "Feature",
      "geometry": {
        "type": "Point",
        "coordinates": [
          25.993633,
          59.8833
        ]
      },
      "properties": {
        "mmsi": 636018294,
        "name": "NEW FRIENDSHIP",
        "sog": 0.0,
        "cog": 152.6,
        "heading": 62,
        "timestamp": "1790789934921"
      }
    },
    {
      "type": "Feature",
      "geometry": {
        "type": "Point",
        "coordinates": [
          24.99848,
          59.50338
        ]
      },
      "properties": {
        "mmsi": 259309000,
        "name": "ANTARCTIC ENABLER",
        "sog": 0.0,
        "cog": 227.9,
        "heading": 138,
        "timestamp": "1790789934476"
      }
    },
    {
      "type": "Feature",
      "geometry": {
        "type": "Point",
        "coordinates": [
          25.839923,
          59.85537
        ]
      },
      "properties": {
        "mmsi": 636022514,
        "name": "LC D'ARTAGNAN",
        "sog": 0.0,
        "cog": 334.8,
        "heading": 99,
        "timestamp": "1790789934097"
      }
    },
    {
      "type": "Feature",
      "geometry": {
        "type": "Point",
        "coordinates": [
          25.723585,
          59.840512
        ]
      },
      "properties": {
        "mmsi": 311002223,
        "name": "UNION FAITH",
        "sog": 0.0,
        "cog": 256.8,
        "heading": 83,
        "timestamp": "1790789875397"
      }
    },
    {
      "type": "Feature",
      "geometry": {
        "type": "Point",
        "coordinates": [
          25.198157,
          60.221088
        ]
      },
      "properties": {
        "mmsi": 230985150,
        "name": "HECTOR",
        "sog": 0.0,
        "cog": 144.3,
        "heading": 222,
        "timestamp": "1790789875692"
      }
    },
    {
      "type": "Feature",
      "geometry": {
        "type": "Point",
        "coordinates": [
          24.97277,
          60.169455
        ]
      },
      "properties": {
        "mmsi": 230290000,
        "name": "URHO",
        "sog": 0.0,
        "cog": 229.7,
        "heading": 243,
        "timestamp": "1790789876904"
      }
    },
    {
      "type": "Feature",
      "geometry": {
        "type": "Point",
        "coordinates": [
          25.552322,
          60.311343
        ]
      },
      "properties": {
        "mmsi": 230946000,
        "name": "UKKO",
        "sog": 0.0,
        "cog": 330.7,
        "heading": 180,
        "timestamp": "1790790003397"
      }
    },
    {
      "type": "Feature",
      "geometry": {
        "type": "Point",
        "coordinates": [
          24.721152,
          59.459087
        ]
      },
      "properties": {
        "mmsi": 276014100,
        "name": "SINILIND",
        "sog": 0.0,
        "cog": 360.0,
        "heading": 511,
        "timestamp": "1790789814064"
      }
    },
    {
      "type": "Feature",
      "geometry": {
        "type": "Point",
        "coordinates": [
          24.086545,
          59.330747
        ]
      },
      "properties": {
        "mmsi": 235500000,
        "name": "HURST POINT",
        "sog": 0.0,
        "cog": 35.9,
        "heading": 198,
        "timestamp": "1790789871002"
      }
    },
    {
      "type": "Feature",
      "geometry": {
        "type": "Point",
        "coordinates": [
          24.739538,
          59.454392
        ]
      },
      "properties": {
        "mmsi": 276329000,
        "name": "SALME",
        "sog": 0.0,
        "cog": 244.7,
        "heading": 3,
        "timestamp": "1790789700423"
      }
    },
    {
      "type": "Feature",
      "geometry": {
        "type": "Point",
        "coordinates": [
          24.711003,
          59.460907
        ]
      },
      "properties": {
        "mmsi": 210051000,
        "name": "RINA",
        "sog": 0.0,
        "cog": 193.5,
        "heading": 511,
        "timestamp": "1790789701406"
      }
    },
    {
      "type": "Feature",
      "geometry": {
        "type": "Point",
        "coordinates": [
          25.292447,
          59.803403
        ]
      },
      "properties": {
        "mmsi": 636022218,
        "name": "PALLADIUM",
        "sog": 0.0,
        "cog": 213.9,
        "heading": 128,
        "timestamp": "1790789973372"
      }
    },
    {
      "type": "Feature",
      "geometry": {
        "type": "Point",
        "coordinates": [
          25.062903,
          60.105805
        ]
      },
      "properties": {
        "mmsi": 230991880,
        "name": "SVANHILD",
        "sog": 0.0,
        "cog": 197.6,
        "heading": 256,
        "timestamp": "1790789954012"
      }
    },
    {
      "type": "Feature",
      "geometry": {
        "type": "Point",
        "coordinates": [
          24.714202,
          59.458827
        ]
      },
      "properties": {
        "mmsi": 255806387,
        "name": "AMBER SKY",
        "sog": 0.0,
        "cog": 0.0,
        "heading": 74,
        "timestamp": "1790789975221"
      }
    },
    {
      "type": "Feature",
      "geometry": {
        "type": "Point",
        "coordinates": [
          25.501478,
          59.826512
        ]
      },
      "properties": {
        "mmsi": 352003382,
        "name": "OSCAR",
        "sog": 0.0,
        "cog": 225.9,
        "heading": 102,
        "timestamp": "1790789982366"
      }
    },
    {
      "type": "Feature",
      "geometry": {
        "type": "Point",
        "coordinates": [
          25.035702,
          60.148918
        ]
      },
      "properties": {
        "mmsi": 230055040,
        "name": "MIINA",
        "sog": 0.0,
        "cog": 360.0,
        "heading": 511,
        "timestamp": "1790789771400"
      }
    },
    {
      "type": "Feature",
      "geometry": {
        "type": "Point",
        "coordinates": [
          26.84263,
          60.382982
        ]
      },
      "properties": {
        "mmsi": 255620000,
        "name": "TORNEDALEN",
        "sog": 0.0,
        "cog": 142.8,
        "heading": 14,
        "timestamp": "1790789992661"
      }
    },
    {
      "type": "Feature",
      "geometry": {
        "type": "Point",
        "coordinates": [
          24.983452,
          60.145967
        ]
      },
      "properties": {
        "mmsi": 230169030,
        "name": "RODNY",
        "sog": 0.0,
        "cog": 360.0,
        "heading": 139,
        "timestamp": "1790790014047"
      }
    },
    {
      "type": "Feature",
      "geometry": {
        "type": "Point",
        "coordinates": [
          24.709998,
          59.460333
        ]
      },
      "properties": {
        "mmsi": 259859000,
        "name": "HALTBAKK COMABAR",
        "sog": 0.0,
        "cog": 184.5,
        "heading": 511,
        "timestamp": "1790790011965"
      }
    },
    {
      "type": "Feature",
      "geometry": {
        "type": "Point",
        "coordinates": [
          25.73062,
          59.826258
        ]
      },
      "properties": {
        "mmsi": 636015430,
        "name": "AGAPI S",
        "sog": 0.0,
        "cog": 142.8,
        "heading": 87,
        "timestamp": "1790789859962"
      }
    },
    {
      "type": "Feature",
      "geometry": {
        "type": "Point",
        "coordinates": [
          26.07037,
          59.89068
        ]
      },
      "properties": {
        "mmsi": 631010121,
        "name": "VIKRAM",
        "sog": 0.0,
        "cog": 140.8,
        "heading": 511,
        "timestamp": "1790789866225"
      }
    },
    {
      "type": "Feature",
      "geometry": {
        "type": "Point",
        "coordinates": [
          26.92119,
          60.42817
        ]
      },
      "properties": {
        "mmsi": 210048000,
        "name": "NORMA",
        "sog": 0.0,
        "cog": 112.5,
        "heading": 124,
        "timestamp": "1790789880756"
      }
    },
    {
      "type": "Feature",
      "geometry": {
        "type": "Point",
        "coordinates": [
          24.752415,
          59.447767
        ]
      },
      "properties": {
        "mmsi": 276864000,
        "name": "VEGTIND",
        "sog": 0.0,
        "cog": 83.5,
        "heading": 174,
        "timestamp": "1790789713615"
      }
    },
    {
      "type": "Feature",
      "geometry": {
        "type": "Point",
        "coordinates": [
          25.188102,
          60.21497
        ]
      },
      "properties": {
        "mmsi": 249537000,
        "name": "ECO KHAMSIN",
        "sog": 0.0,
        "cog": 28.2,
        "heading": 140,
        "timestamp": "1790789902777"
      }
    },
    {
      "type": "Feature",
      "geometry": {
        "type": "Point",
        "coordinates": [
          26.073035,
          59.862658
        ]
      },
      "properties": {
        "mmsi": 636093435,
        "name": "PHANTOM",
        "sog": 0.0,
        "cog": 360.0,
        "heading": 94,
        "timestamp": "1790789913222"
      }
    },
    {
      "type": "Feature",
      "geometry": {
        "type": "Point",
        "coordinates": [
          25.843433,
          59.82582
        ]
      },
      "properties": {
        "mmsi": 341425000,
        "name": "ZULFIKAR",
        "sog": 0.0,
        "cog": 357.0,
        "heading": 79,
        "timestamp": "1790789916471"
      }
    },
    {
      "type": "Feature",
      "geometry": {
        "type": "Point",
        "coordinates": [
          24.889275,
          60.155607
        ]
      },
      "properties": {
        "mmsi": 230987940,
        "name": "JOANNA SATURNA",
        "sog": 0.0,
        "cog": 236.5,
        "heading": 83,
        "timestamp": "1790789922770"
      }
    },
    {
      "type": "Feature",
      "geometry": {
        "type": "Point",
        "coordinates": [
          24.924202,
          60.161093
        ]
      },
      "properties": {
        "mmsi": 230941940,
        "name": "VARTIOLAIVA 55",
        "sog": 0.1,
        "cog": 69.6,
        "heading": 312,
        "timestamp": "1790789982053"
      }
    },
    {
      "type": "Feature",
      "geometry": {
        "type": "Point",
        "coordinates": [
          24.667043,
          59.454485
        ]
      },
      "properties": {
        "mmsi": 209184000,
        "name": "IMAVERE",
        "sog": 0.0,
        "cog": 309.0,
        "heading": 321,
        "timestamp": "1790789917971"
      }
    },
    {
      "type": "Feature",
      "geometry": {
        "type": "Point",
        "coordinates": [
          26.030243,
          59.86425
        ]
      },
      "properties": {
        "mmsi": 477151900,
        "name": "GREAT INTELLIGENCE",
        "sog": 0.0,
        "cog": 82.9,
        "heading": 82,
        "timestamp": "1790789933561"
      }
    },
    {
      "type": "Feature",
      "geometry": {
        "type": "Point",
        "coordinates": [
          24.965167,
          59.4925
        ]
      },
      "properties": {
        "mmsi": 255805555,
        "name": "AKACIA",
        "sog": 0.2,
        "cog": 218.0,
        "heading": 130,
        "timestamp": "1790789938820"
      }
    },
    {
      "type": "Feature",
      "geometry": {
        "type": "Point",
        "coordinates": [
          26.337332,
          60.190473
        ]
      },
      "properties": {
        "mmsi": 259372000,
        "name": "CHRISTINA",
        "sog": 0.0,
        "cog": 5.4,
        "heading": 56,
        "timestamp": "1790789881706"
      }
    },
    {
      "type": "Feature",
      "geometry": {
        "type": "Point",
        "coordinates": [
          24.961198,
          60.160007
        ]
      },
      "properties": {
        "mmsi": 230985490,
        "name": "SUOMENLINNA II",
        "sog": 0.0,
        "cog": 360.0,
        "heading": 143,
        "timestamp": "1790789886105"
      }
    },
    {
      "type": "Feature",
      "geometry": {
        "type": "Point",
        "coordinates": [
          26.083207,
          59.878755
        ]
      },
      "properties": {
        "mmsi": 538007150,
        "name": "LMZ VEGA",
        "sog": 0.1,
        "cog": 25.5,
        "heading": 74,
        "timestamp": "1790789893832"
      }
    },
    {
      "type": "Feature",
      "geometry": {
        "type": "Point",
        "coordinates": [
          24.660458,
          59.4586
        ]
      },
      "properties": {
        "mmsi": 352006699,
        "name": "BALTIC WHALE",
        "sog": 0.0,
        "cog": 0.0,
        "heading": 511,
        "timestamp": "1790789894381"
      }
    },
    {
      "type": "Feature",
      "geometry": {
        "type": "Point",
        "coordinates": [
          25.566873,
          59.837795
        ]
      },
      "properties": {
        "mmsi": 667002574,
        "name": "VIXENA",
        "sog": 0.0,
        "cog": 187.0,
        "heading": 115,
        "timestamp": "1790789940334"
      }
    },
    {
      "type": "Feature",
      "geometry": {
        "type": "Point",
        "coordinates": [
          26.916877,
          60.437367
        ]
      },
      "properties": {
        "mmsi": 230686000,
        "name": "CALYPSO",
        "sog": 0.0,
        "cog": 0.0,
        "heading": 72,
        "timestamp": "1790790011084"
      }
    },
    {
      "type": "Feature",
      "geometry": {
        "type": "Point",
        "coordinates": [
          24.702847,
          59.456673
        ]
      },
      "properties": {
        "mmsi": 209325000,
        "name": "RIX RIVER",
        "sog": 0.0,
        "cog": 1.1,
        "heading": 24,
        "timestamp": "1790789717403"
      }
    },
    {
      "type": "Feature",
      "geometry": {
        "type": "Point",
        "coordinates": [
          24.929103,
          60.15909
        ]
      },
      "properties": {
        "mmsi": 230941190,
        "name": "S/S TURSO",
        "sog": 0.0,
        "cog": 32.5,
        "heading": 139,
        "timestamp": "1790789893657"
      }
    },
    {
      "type": "Feature",
      "geometry": {
        "type": "Point",
        "coordinates": [
          24.710927,
          59.45842
        ]
      },
      "properties": {
        "mmsi": 275304000,
        "name": "ROMANTIKA",
        "sog": 0.0,
        "cog": 160.6,
        "heading": 254,
        "timestamp": "1790789895146"
      }
    },
    {
      "type": "Feature",
      "geometry": {
        "type": "Point",
        "coordinates": [
          25.0094,
          60.16914
        ]
      },
      "properties": {
        "mmsi": 230061040,
        "name": "SUURSAARI",
        "sog": 0.0,
        "cog": 19.1,
        "heading": 349,
        "timestamp": "1790789941267"
      }
    },
    {
      "type": "Feature",
      "geometry": {
        "type": "Point",
        "coordinates": [
          25.53842,
          59.83518
        ]
      },
      "properties": {
        "mmsi": 636026561,
        "name": "ATLAS CURRENT",
        "sog": 0.0,
        "cog": 155.0,
        "heading": 106,
        "timestamp": "1790789862612"
      }
    },
    {
      "type": "Feature",
      "geometry": {
        "type": "Point",
        "coordinates": [
          26.220965,
          59.916012
        ]
      },
      "properties": {
        "mmsi": 538010447,
        "name": "ATLANTIC PRESTIGE",
        "sog": 0.0,
        "cog": 177.0,
        "heading": 94,
        "timestamp": "1790789979816"
      }
    },
    {
      "type": "Feature",
      "geometry": {
        "type": "Point",
        "coordinates": [
          24.07817,
          59.33488
        ]
      },
      "properties": {
        "mmsi": 276752000,
        "name": "AHTO-27",
        "sog": 0.0,
        "cog": 282.5,
        "heading": 511,
        "timestamp": "1790789973591"
      }
    },
    {
      "type": "Feature",
      "geometry": {
        "type": "Point",
        "coordinates": [
          24.959167,
          59.492965
        ]
      },
      "properties": {
        "mmsi": 305089300,
        "name": "SANDERA",
        "sog": 0.0,
        "cog": 258.9,
        "heading": 312,
        "timestamp": "1790790006552"
      }
    },
    {
      "type": "Feature",
      "geometry": {
        "type": "Point",
        "coordinates": [
          24.962135,
          60.171213
        ]
      },
      "properties": {
        "mmsi": 230108270,
        "name": "VALBORG",
        "sog": 0.0,
        "cog": 170.0,
        "heading": 511,
        "timestamp": "1790789838794"
      }
    },
    {
      "type": "Feature",
      "geometry": {
        "type": "Point",
        "coordinates": [
          24.95199,
          59.496403
        ]
      },
      "properties": {
        "mmsi": 566211000,
        "name": "KRAKEN",
        "sog": 0.0,
        "cog": 57.6,
        "heading": 315,
        "timestamp": "1790789864111"
      }
    },
    {
      "type": "Feature",
      "geometry": {
        "type": "Point",
        "coordinates": [
          24.719832,
          59.45781
        ]
      },
      "properties": {
        "mmsi": 276551000,
        "name": "AHTO 21",
        "sog": 0.0,
        "cog": 181.6,
        "heading": 172,
        "timestamp": "1790790011716"
      }
    },
    {
      "type": "Feature",
      "geometry": {
        "type": "Point",
        "coordinates": [
          26.915877,
          60.437227
        ]
      },
      "properties": {
        "mmsi": 230992970,
        "name": "VIIKARI",
        "sog": 0.0,
        "cog": 171.5,
        "heading": 252,
        "timestamp": "1790790013522"
      }
    },
    {
      "type": "Feature",
      "geometry": {
        "type": "Point",
        "coordinates": [
          26.016308,
          59.844312
        ]
      },
      "properties": {
        "mmsi": 314249000,
        "name": "GALATA",
        "sog": 0.0,
        "cog": 77.2,
        "heading": 78,
        "timestamp": "1790789843236"
      }
    },
    {
      "type": "Feature",
      "geometry": {
        "type": "Point",
        "coordinates": [
          26.9088,
          60.421833
        ]
      },
      "properties": {
        "mmsi": 219115000,
        "name": "VENTA MAERSK",
        "sog": 0.0,
        "cog": 274.1,
        "heading": 320,
        "timestamp": "1790789861947"
      }
    },
    {
      "type": "Feature",
      "geometry": {
        "type": "Point",
        "coordinates": [
          24.974715,
          60.169862
        ]
      },
      "properties": {
        "mmsi": 230251000,
        "name": "KONTIO",
        "sog": 0.0,
        "cog": 115.1,
        "heading": 243,
        "timestamp": "1790789862874"
      }
    },
    {
      "type": "Feature",
      "geometry": {
        "type": "Point",
        "coordinates": [
          26.943237,
          60.471462
        ]
      },
      "properties": {
        "mmsi": 230235000,
        "name": "VIVAN",
        "sog": 0.0,
        "cog": 216.2,
        "heading": 511,
        "timestamp": "1790789860861"
      }
    },
    {
      "type": "Feature",
      "geometry": {
        "type": "Point",
        "coordinates": [
          25.55152,
          60.304442
        ]
      },
      "properties": {
        "mmsi": 538012731,
        "name": "ALPINE SPIRIT",
        "sog": 0.0,
        "cog": 8.2,
        "heading": 18,
        "timestamp": "1790789871183"
      }
    },
    {
      "type": "Feature",
      "geometry": {
        "type": "Point",
        "coordinates": [
          25.908767,
          59.838017
        ]
      },
      "properties": {
        "mmsi": 538008785,
        "name": "NEROLI",
        "sog": 0.0,
        "cog": 7.0,
        "heading": 69,
        "timestamp": "1790790007385"
      }
    },
    {
      "type": "Feature",
      "geometry": {
        "type": "Point",
        "coordinates": [
          26.75455,
          60.011983
        ]
      },
      "properties": {
        "mmsi": 636022719,
        "name": "HELGA",
        "sog": 10.7,
        "cog": 279.0,
        "heading": 279,
        "timestamp": "1790790009380"
      }
    },
    {
      "type": "Feature",
      "geometry": {
        "type": "Point",
        "coordinates": [
          25.817075,
          59.823937
        ]
      },
      "properties": {
        "mmsi": 341421002,
        "name": "MKK MADRID",
        "sog": 0.0,
        "cog": 287.0,
        "heading": 102,
        "timestamp": "1790790010217"
      }
    },
    {
      "type": "Feature",
      "geometry": {
        "type": "Point",
        "coordinates": [
          24.651057,
          59.460332
        ]
      },
      "properties": {
        "mmsi": 244632000,
        "name": "VIRGINIABORG",
        "sog": 0.0,
        "cog": 0.0,
        "heading": 511,
        "timestamp": "1790790014638"
      }
    },
    {
      "type": "Feature",
      "geometry": {
        "type": "Point",
        "coordinates": [
          26.252967,
          60.40266
        ]
      },
      "properties": {
        "mmsi": 230994810,
        "name": "RESCUE DEGERBY",
        "sog": 0.0,
        "cog": 44.9,
        "heading": 294,
        "timestamp": "1790790011760"
      }
    },
    {
      "type": "Feature",
      "geometry": {
        "type": "Point",
        "coordinates": [
          24.704558,
          59.458528
        ]
      },
      "properties": {
        "mmsi": 304176000,
        "name": "KARILIIS",
        "sog": 0.0,
        "cog": 198.6,
        "heading": 300,
        "timestamp": "1790789888542"
      }
    },
    {
      "type": "Feature",
      "geometry": {
        "type": "Point",
        "coordinates": [
          24.671582,
          59.451133
        ]
      },
      "properties": {
        "mmsi": 209658000,
        "name": "RADUGA PROTON",
        "sog": 0.0,
        "cog": 108.0,
        "heading": 131,
        "timestamp": "1790789897051"
      }
    },
    {
      "type": "Feature",
      "geometry": {
        "type": "Point",
        "coordinates": [
          26.253265,
          60.407235
        ]
      },
      "properties": {
        "mmsi": 230093590,
        "name": "EIJA",
        "sog": 0.0,
        "cog": 249.8,
        "heading": 68,
        "timestamp": "1790789948656"
      }
    },
    {
      "type": "Feature",
      "geometry": {
        "type": "Point",
        "coordinates": [
          24.6497,
          59.458822
        ]
      },
      "properties": {
        "mmsi": 276482000,
        "name": "VIGRI",
        "sog": 0.0,
        "cog": 0.0,
        "heading": 511,
        "timestamp": "1790789687019"
      }
    },
    {
      "type": "Feature",
      "geometry": {
        "type": "Point",
        "coordinates": [
          25.887017,
          59.860567
        ]
      },
      "properties": {
        "mmsi": 312494000,
        "name": "AMERAY",
        "sog": 0.0,
        "cog": 287.0,
        "heading": 86,
        "timestamp": "1790789970589"
      }
    },
    {
      "type": "Feature",
      "geometry": {
        "type": "Point",
        "coordinates": [
          24.792398,
          59.558655
        ]
      },
      "properties": {
        "mmsi": 276797000,
        "name": "AHTO-29",
        "sog": 0.0,
        "cog": 12.2,
        "heading": 279,
        "timestamp": "1790789856497"
      }
    },
    {
      "type": "Feature",
      "geometry": {
        "type": "Point",
        "coordinates": [
          24.720837,
          59.458603
        ]
      },
      "properties": {
        "mmsi": 276784000,
        "name": "AHTO-01",
        "sog": 0.1,
        "cog": 142.9,
        "heading": 217,
        "timestamp": "1790789868703"
      }
    },
    {
      "type": "Feature",
      "geometry": {
        "type": "Point",
        "coordinates": [
          24.96297,
          60.176165
        ]
      },
      "properties": {
        "mmsi": 230052800,
        "name": "EMMA",
        "sog": 0.0,
        "cog": 191.8,
        "heading": 47,
        "timestamp": "1790789955536"
      }
    },
    {
      "type": "Feature",
      "geometry": {
        "type": "Point",
        "coordinates": [
          25.835152,
          60.288108
        ]
      },
      "properties": {
        "mmsi": 230984450,
        "name": "ALEXANDRA",
        "sog": 0.0,
        "cog": 133.6,
        "heading": 261,
        "timestamp": "1790789894556"
      }
    },
    {
      "type": "Feature",
      "geometry": {
        "type": "Point",
        "coordinates": [
          24.737217,
          59.453398
        ]
      },
      "properties": {
        "mmsi": 276014670,
        "name": "NARGO",
        "sog": 0.0,
        "cog": 142.1,
        "heading": 183,
        "timestamp": "1790789672858"
      }
    },
    {
      "type": "Feature",
      "geometry": {
        "type": "Point",
        "coordinates": [
          24.928423,
          60.160272
        ]
      },
      "properties": {
        "mmsi": 230047000,
        "name": "AJAX",
        "sog": 0.0,
        "cog": 158.9,
        "heading": 103,
        "timestamp": "1790789695856"
      }
    },
    {
      "type": "Feature",
      "geometry": {
        "type": "Point",
        "coordinates": [
          24.702405,
          59.456338
        ]
      },
      "properties": {
        "mmsi": 209336000,
        "name": "RIX ALLIANCE",
        "sog": 0.1,
        "cog": 139.1,
        "heading": 511,
        "timestamp": "1790789886933"
      }
    },
    {
      "type": "Feature",
      "geometry": {
        "type": "Point",
        "coordinates": [
          24.210417,
          59.463448
        ]
      },
      "properties": {
        "mmsi": 276008110,
        "name": "KRATT",
        "sog": 6.9,
        "cog": 66.2,
        "heading": 70,
        "timestamp": "1790790009867"
      }
    },
    {
      "type": "Feature",
      "geometry": {
        "type": "Point",
        "coordinates": [
          25.419843,
          59.816643
        ]
      },
      "properties": {
        "mmsi": 240447000,
        "name": "AMALTHEA",
        "sog": 0.0,
        "cog": 41.2,
        "heading": 118,
        "timestamp": "1790789898603"
      }
    },
    {
      "type": "Feature",
      "geometry": {
        "type": "Point",
        "coordinates": [
          24.96312,
          60.176103
        ]
      },
      "properties": {
        "mmsi": 230024660,
        "name": "TOR",
        "sog": 0.0,
        "cog": 208.6,
        "heading": 50,
        "timestamp": "1790789901049"
      }
    },
    {
      "type": "Feature",
      "geometry": {
        "type": "Point",
        "coordinates": [
          26.248777,
          60.419923
        ]
      },
      "properties": {
        "mmsi": 230157930,
        "name": "MERITUULI",
        "sog": 0.0,
        "cog": 102.9,
        "heading": 285,
        "timestamp": "1790789901049"
      }
    },
    {
      "type": "Feature",
      "geometry": {
        "type": "Point",
        "coordinates": [
          25.754567,
          59.840067
        ]
      },
      "properties": {
        "mmsi": 352005806,
        "name": "GATTACA",
        "sog": 0.0,
        "cog": 253.7,
        "heading": 511,
        "timestamp": "1790789907542"
      }
    },
    {
      "type": "Feature",
      "geometry": {
        "type": "Point",
        "coordinates": [
          26.006483,
          59.829367
        ]
      },
      "properties": {
        "mmsi": 574005400,
        "name": "LOYAL",
        "sog": 0.0,
        "cog": 359.0,
        "heading": 72,
        "timestamp": "1790789907891"
      }
    },
    {
      "type": "Feature",
      "geometry": {
        "type": "Point",
        "coordinates": [
          24.913968,
          60.147238
        ]
      },
      "properties": {
        "mmsi": 230941570,
        "name": "MERIKUOKKA",
        "sog": 0.0,
        "cog": 360.0,
        "heading": 511,
        "timestamp": "1790790016026"
      }
    },
    {
      "type": "Feature",
      "geometry": {
        "type": "Point",
        "coordinates": [
          24.719458,
          59.457422
        ]
      },
      "properties": {
        "mmsi": 276432000,
        "name": "EVA-318",
        "sog": 0.1,
        "cog": 127.0,
        "heading": 203,
        "timestamp": "1790789878637"
      }
    },
    {
      "type": "Feature",
      "geometry": {
        "type": "Point",
        "coordinates": [
          25.199927,
          60.212932
        ]
      },
      "properties": {
        "mmsi": 314456000,
        "name": "WILSON HOBRO",
        "sog": 0.0,
        "cog": 323.3,
        "heading": 232,
        "timestamp": "1790790008956"
      }
    },
    {
      "type": "Feature",
      "geometry": {
        "type": "Point",
        "coordinates": [
          24.648468,
          59.465745
        ]
      },
      "properties": {
        "mmsi": 341477002,
        "name": "MARCELA ROSE",
        "sog": 0.0,
        "cog": 317.1,
        "heading": 303,
        "timestamp": "1790789887269"
      }
    },
    {
      "type": "Feature",
      "geometry": {
        "type": "Point",
        "coordinates": [
          24.97225,
          60.169887
        ]
      },
      "properties": {
        "mmsi": 230661000,
        "name": "POLARIS",
        "sog": 0.0,
        "cog": 270.5,
        "heading": 242,
        "timestamp": "1790789914744"
      }
    },
    {
      "type": "Feature",
      "geometry": {
        "type": "Point",
        "coordinates": [
          26.10807,
          59.896987
        ]
      },
      "properties": {
        "mmsi": 631010120,
        "name": "VIREL",
        "sog": 0.0,
        "cog": 16.4,
        "heading": 72,
        "timestamp": "1790789916296"
      }
    },
    {
      "type": "Feature",
      "geometry": {
        "type": "Point",
        "coordinates": [
          26.026383,
          59.831317
        ]
      },
      "properties": {
        "mmsi": 572142220,
        "name": "SPICA",
        "sog": 0.0,
        "cog": 356.0,
        "heading": 70,
        "timestamp": "1790789681619"
      }
    },
    {
      "type": "Feature",
      "geometry": {
        "type": "Point",
        "coordinates": [
          26.115067,
          59.883867
        ]
      },
      "properties": {
        "mmsi": 477223800,
        "name": "V OCEAN 802",
        "sog": 0.0,
        "cog": 213.0,
        "heading": 81,
        "timestamp": "1790789917011"
      }
    },
    {
      "type": "Feature",
      "geometry": {
        "type": "Point",
        "coordinates": [
          25.012328,
          59.637238
        ]
      },
      "properties": {
        "mmsi": 276810000,
        "name": "WRANGO",
        "sog": 0.0,
        "cog": 285.8,
        "heading": 290,
        "timestamp": "1790789903688"
      }
    },
    {
      "type": "Feature",
      "geometry": {
        "type": "Point",
        "coordinates": [
          26.039588,
          59.88496
        ]
      },
      "properties": {
        "mmsi": 314001132,
        "name": "BRAVIS",
        "sog": 0.0,
        "cog": 163.3,
        "heading": 101,
        "timestamp": "1790789906344"
      }
    },
    {
      "type": "Feature",
      "geometry": {
        "type": "Point",
        "coordinates": [
          26.951425,
          60.473575
        ]
      },
      "properties": {
        "mmsi": 230302000,
        "name": "MERIKARHU",
        "sog": 0.0,
        "cog": 200.0,
        "heading": 222,
        "timestamp": "1790789910828"
      }
    },
    {
      "type": "Feature",
      "geometry": {
        "type": "Point",
        "coordinates": [
          24.927747,
          60.160332
        ]
      },
      "properties": {
        "mmsi": 276504000,
        "name": "H.KANTER",
        "sog": 0.0,
        "cog": 291.1,
        "heading": 103,
        "timestamp": "1790789911006"
      }
    },
    {
      "type": "Feature",
      "geometry": {
        "type": "Point",
        "coordinates": [
          24.704435,
          59.45648
        ]
      },
      "properties": {
        "mmsi": 230351000,
        "name": "HJORDIS",
        "sog": 0.0,
        "cog": 210.7,
        "heading": 31,
        "timestamp": "1790789914613"
      }
    },
    {
      "type": "Feature",
      "geometry": {
        "type": "Point",
        "coordinates": [
          25.951472,
          59.82073
        ]
      },
      "properties": {
        "mmsi": 249284000,
        "name": "SEALADY",
        "sog": 0.0,
        "cog": 4.0,
        "heading": 78,
        "timestamp": "1790789917605"
      }
    },
    {
      "type": "Feature",
      "geometry": {
        "type": "Point",
        "coordinates": [
          25.944533,
          59.8391
        ]
      },
      "properties": {
        "mmsi": 373440000,
        "name": "HONOR STAR",
        "sog": 0.0,
        "cog": 292.0,
        "heading": 56,
        "timestamp": "1790789920050"
      }
    },
    {
      "type": "Feature",
      "geometry": {
        "type": "Point",
        "coordinates": [
          25.062727,
          60.105655
        ]
      },
      "properties": {
        "mmsi": 230998670,
        "name": "ASTRID",
        "sog": 0.0,
        "cog": 242.2,
        "heading": 287,
        "timestamp": "1790789924773"
      }
    },
    {
      "type": "Feature",
      "geometry": {
        "type": "Point",
        "coordinates": [
          25.809455,
          59.850443
        ]
      },
      "properties": {
        "mmsi": 351988000,
        "name": "AEOLIAN SUNRISE",
        "sog": 0.0,
        "cog": 51.0,
        "heading": 138,
        "timestamp": "1790789919285"
      }
    },
    {
      "type": "Feature",
      "geometry": {
        "type": "Point",
        "coordinates": [
          24.72008,
          59.457977
        ]
      },
      "properties": {
        "mmsi": 276781000,
        "name": "SEKTORI",
        "sog": 0.0,
        "cog": 0.0,
        "heading": 33,
        "timestamp": "1790789921540"
      }
    },
    {
      "type": "Feature",
      "geometry": {
        "type": "Point",
        "coordinates": [
          24.924775,
          60.16077
        ]
      },
      "properties": {
        "mmsi": 230955000,
        "name": "CARMEL",
        "sog": 0.0,
        "cog": 218.3,
        "heading": 314,
        "timestamp": "1790789927373"
      }
    },
    {
      "type": "Feature",
      "geometry": {
        "type": "Point",
        "coordinates": [
          26.05466,
          59.843418
        ]
      },
      "properties": {
        "mmsi": 414485000,
        "name": "HUA SI HAI",
        "sog": 0.1,
        "cog": 344.6,
        "heading": 96,
        "timestamp": "1790789957008"
      }
    },
    {
      "type": "Feature",
      "geometry": {
        "type": "Point",
        "coordinates": [
          25.977743,
          59.867208
        ]
      },
      "properties": {
        "mmsi": 352005165,
        "name": "LUCKY BELLA",
        "sog": 0.0,
        "cog": 167.0,
        "heading": 50,
        "timestamp": "1790789957602"
      }
    },
    {
      "type": "Feature",
      "geometry": {
        "type": "Point",
        "coordinates": [
          25.54685,
          60.297883
        ]
      },
      "properties": {
        "mmsi": 246272000,
        "name": "CORAL ANTHELIA",
        "sog": 0.0,
        "cog": 14.2,
        "heading": 185,
        "timestamp": "1790789872299"
      }
    },
    {
      "type": "Feature",
      "geometry": {
        "type": "Point",
        "coordinates": [
          26.15092,
          59.909365
        ]
      },
      "properties": {
        "mmsi": 229177000,
        "name": "TAHITI ONE",
        "sog": 0.0,
        "cog": 205.9,
        "heading": 87,
        "timestamp": "1790789923317"
      }
    },
    {
      "type": "Feature",
      "geometry": {
        "type": "Point",
        "coordinates": [
          25.932253,
          59.852802
        ]
      },
      "properties": {
        "mmsi": 354235000,
        "name": "AC GLORIOUS",
        "sog": 0.0,
        "cog": 326.2,
        "heading": 52,
        "timestamp": "1790789929418"
      }
    },
    {
      "type": "Feature",
      "geometry": {
        "type": "Point",
        "coordinates": [
          24.66198,
          59.453807
        ]
      },
      "properties": {
        "mmsi": 276847000,
        "name": "PALLAS",
        "sog": 0.0,
        "cog": 301.5,
        "heading": 332,
        "timestamp": "1790790000123"
      }
    },
    {
      "type": "Feature",
      "geometry": {
        "type": "Point",
        "coordinates": [
          24.662383,
          59.453495
        ]
      },
      "properties": {
        "mmsi": 276832000,
        "name": "VEGA",
        "sog": 0.0,
        "cog": 196.0,
        "heading": 151,
        "timestamp": "1790790011162"
      }
    },
    {
      "type": "Feature",
      "geometry": {
        "type": "Point",
        "coordinates": [
          24.703182,
          59.45754
        ]
      },
      "properties": {
        "mmsi": 276835000,
        "name": "TORVIK",
        "sog": 0.0,
        "cog": 211.7,
        "heading": 511,
        "timestamp": "1790790011760"
      }
    },
    {
      "type": "Feature",
      "geometry": {
        "type": "Point",
        "coordinates": [
          24.657443,
          59.46004
        ]
      },
      "properties": {
        "mmsi": 244301000,
        "name": "AMSTELBORG",
        "sog": 0.0,
        "cog": 122.0,
        "heading": 122,
        "timestamp": "1790789931787"
      }
    },
    {
      "type": "Feature",
      "geometry": {
        "type": "Point",
        "coordinates": [
          25.60854,
          59.835543
        ]
      },
      "properties": {
        "mmsi": 538013084,
        "name": "MERIDIUS",
        "sog": 0.0,
        "cog": 199.3,
        "heading": 511,
        "timestamp": "1790789944971"
      }
    },
    {
      "type": "Feature",
      "geometry": {
        "type": "Point",
        "coordinates": [
          24.925638,
          60.158132
        ]
      },
      "properties": {
        "mmsi": 230941700,
        "name": "MERI",
        "sog": 0.0,
        "cog": 185.6,
        "heading": 323,
        "timestamp": "1790789945063"
      }
    },
    {
      "type": "Feature",
      "geometry": {
        "type": "Point",
        "coordinates": [
          25.8284,
          59.840927
        ]
      },
      "properties": {
        "mmsi": 538011530,
        "name": "SEA WOLF I",
        "sog": 0.0,
        "cog": 121.9,
        "heading": 112,
        "timestamp": "1790789964934"
      }
    },
    {
      "type": "Feature",
      "geometry": {
        "type": "Point",
        "coordinates": [
          24.650093,
          59.462445
        ]
      },
      "properties": {
        "mmsi": 210056000,
        "name": "ZIRCONE",
        "sog": 0.0,
        "cog": 0.0,
        "heading": 511,
        "timestamp": "1790789801657"
      }
    },
    {
      "type": "Feature",
      "geometry": {
        "type": "Point",
        "coordinates": [
          24.13298,
          59.633312
        ]
      },
      "properties": {
        "mmsi": 352001654,
        "name": "NBA STAR",
        "sog": 0.0,
        "cog": 179.8,
        "heading": 103,
        "timestamp": "1790789968778"
      }
    },
    {
      "type": "Feature",
      "geometry": {
        "type": "Point",
        "coordinates": [
          24.980382,
          60.167388
        ]
      },
      "properties": {
        "mmsi": 230108590,
        "name": "EHRENSVAERD",
        "sog": 0.0,
        "cog": 0.1,
        "heading": 58,
        "timestamp": "1790789973810"
      }
    },
    {
      "type": "Feature",
      "geometry": {
        "type": "Point",
        "coordinates": [
          25.200708,
          60.213418
        ]
      },
      "properties": {
        "mmsi": 246671000,
        "name": "POTTERSGRACHT",
        "sog": 0.0,
        "cog": 300.2,
        "heading": 319,
        "timestamp": "1790789976210"
      }
    },
    {
      "type": "Feature",
      "geometry": {
        "type": "Point",
        "coordinates": [
          25.955057,
          59.864205
        ]
      },
      "properties": {
        "mmsi": 538010610,
        "name": "ATLANTIC SPIRIT II",
        "sog": 0.0,
        "cog": 314.3,
        "heading": 73,
        "timestamp": "1790789952858"
      }
    },
    {
      "type": "Feature",
      "geometry": {
        "type": "Point",
        "coordinates": [
          24.980078,
          60.167405
        ]
      },
      "properties": {
        "mmsi": 230112370,
        "name": "HESSU",
        "sog": 0.0,
        "cog": 201.8,
        "heading": 225,
        "timestamp": "1790789956775"
      }
    },
    {
      "type": "Feature",
      "geometry": {
        "type": "Point",
        "coordinates": [
          25.933127,
          59.822148
        ]
      },
      "properties": {
        "mmsi": 636015701,
        "name": "CHRYSANTHI S",
        "sog": 0.1,
        "cog": 9.0,
        "heading": 67,
        "timestamp": "1790790000748"
      }
    },
    {
      "type": "Feature",
      "geometry": {
        "type": "Point",
        "coordinates": [
          24.717982,
          59.458292
        ]
      },
      "properties": {
        "mmsi": 276415000,
        "name": "EVA 316",
        "sog": 0.0,
        "cog": 338.7,
        "heading": 212,
        "timestamp": "1790789959324"
      }
    },
    {
      "type": "Feature",
      "geometry": {
        "type": "Point",
        "coordinates": [
          24.969697,
          60.169007
        ]
      },
      "properties": {
        "mmsi": 230025470,
        "name": "MT1322",
        "sog": 0.0,
        "cog": 354.1,
        "heading": 511,
        "timestamp": "1790790005415"
      }
    },
    {
      "type": "Feature",
      "geometry": {
        "type": "Point",
        "coordinates": [
          26.047633,
          59.869532
        ]
      },
      "properties": {
        "mmsi": 667002314,
        "name": "ARLAN",
        "sog": 0.0,
        "cog": 143.4,
        "heading": 89,
        "timestamp": "1790789877236"
      }
    },
    {
      "type": "Feature",
      "geometry": {
        "type": "Point",
        "coordinates": [
          26.259362,
          60.408853
        ]
      },
      "properties": {
        "mmsi": 230091450,
        "name": "KALKKE",
        "sog": 0.0,
        "cog": 212.1,
        "heading": 145,
        "timestamp": "1790789977971"
      }
    },
    {
      "type": "Feature",
      "geometry": {
        "type": "Point",
        "coordinates": [
          25.753837,
          59.647213
        ]
      },
      "properties": {
        "mmsi": 276013230,
        "name": "SAR SLAVA KAESI",
        "sog": 0.1,
        "cog": 360.0,
        "heading": 511,
        "timestamp": "1790789980693"
      }
    },
    {
      "type": "Feature",
      "geometry": {
        "type": "Point",
        "coordinates": [
          26.911708,
          60.420165
        ]
      },
      "properties": {
        "mmsi": 255806086,
        "name": "SONDERBORG",
        "sog": 0.1,
        "cog": 262.1,
        "heading": 319,
        "timestamp": "1790789997498"
      }
    },
    {
      "type": "Feature",
      "geometry": {
        "type": "Point",
        "coordinates": [
          24.9554,
          59.494733
        ]
      },
      "properties": {
        "mmsi": 371716000,
        "name": "LADY ZEHRA",
        "sog": 0.0,
        "cog": 17.0,
        "heading": 310,
        "timestamp": "1790789999282"
      }
    },
    {
      "type": "Feature",
      "geometry": {
        "type": "Point",
        "coordinates": [
          25.188813,
          60.214337
        ]
      },
      "properties": {
        "mmsi": 255705000,
        "name": "AVA D",
        "sog": 0.0,
        "cog": 242.6,
        "heading": 140,
        "timestamp": "1790789826256"
      }
    },
    {
      "type": "Feature",
      "geometry": {
        "type": "Point",
        "coordinates": [
          25.735327,
          59.865563
        ]
      },
      "properties": {
        "mmsi": 273267740,
        "name": "ELENA",
        "sog": 10.4,
        "cog": 81.1,
        "heading": 80,
        "timestamp": "1790790012832"
      }
    },
    {
      "type": "Feature",
      "geometry": {
        "type": "Point",
        "coordinates": [
          24.660128,
          59.458927
        ]
      },
      "properties": {
        "mmsi": 374357000,
        "name": "ARINA",
        "sog": 1.1,
        "cog": 313.2,
        "heading": 212,
        "timestamp": "1790789891651"
      }
    },
    {
      "type": "Feature",
      "geometry": {
        "type": "Point",
        "coordinates": [
          25.873855,
          59.83958
        ]
      },
      "properties": {
        "mmsi": 636093290,
        "name": "ROSTRUM SCEPTIC",
        "sog": 0.0,
        "cog": 309.7,
        "heading": 76,
        "timestamp": "1790789833917"
      }
    },
    {
      "type": "Feature",
      "geometry": {
        "type": "Point",
        "coordinates": [
          24.969213,
          60.168908
        ]
      },
      "properties": {
        "mmsi": 230994270,
        "name": "RESCUE JENNY WIHURI",
        "sog": 0.0,
        "cog": 212.4,
        "heading": 115,
        "timestamp": "1790789841526"
      }
    },
    {
      "type": "Feature",
      "geometry": {
        "type": "Point",
        "coordinates": [
          24.767467,
          59.44172
        ]
      },
      "properties": {
        "mmsi": 299999999,
        "name": "TESTSHIP",
        "sog": 0.0,
        "cog": 149.2,
        "heading": 187,
        "timestamp": "1790789852178"
      }
    },
    {
      "type": "Feature",
      "geometry": {
        "type": "Point",
        "coordinates": [
          25.903165,
          59.851657
        ]
      },
      "properties": {
        "mmsi": 314001174,
        "name": "ERVA",
        "sog": 0.0,
        "cog": 272.8,
        "heading": 67,
        "timestamp": "1790789853562"
      }
    },
    {
      "type": "Feature",
      "geometry": {
        "type": "Point",
        "coordinates": [
          24.34786,
          60.017478
        ]
      },
      "properties": {
        "mmsi": 230059740,
        "name": "RESCUE AKTIA",
        "sog": 0.0,
        "cog": 59.9,
        "heading": 271,
        "timestamp": "1790790016114"
      }
    },
    {
      "type": "Feature",
      "geometry": {
        "type": "Point",
        "coordinates": [
          24.741698,
          59.776018
        ]
      },
      "properties": {
        "mmsi": 276519000,
        "name": "VICTORIA 1",
        "sog": 10.0,
        "cog": 198.2,
        "heading": 194,
        "timestamp": "1790790009249"
      }
    },
    {
      "type": "Feature",
      "geometry": {
        "type": "Point",
        "coordinates": [
          25.697242,
          59.833228
        ]
      },
      "properties": {
        "mmsi": 461000237,
        "name": "OASIS",
        "sog": 0.1,
        "cog": 297.6,
        "heading": 109,
        "timestamp": "1790789870298"
      }
    },
    {
      "type": "Feature",
      "geometry": {
        "type": "Point",
        "coordinates": [
          24.960718,
          60.171127
        ]
      },
      "properties": {
        "mmsi": 230298000,
        "name": "MUIKKU",
        "sog": 0.0,
        "cog": 329.4,
        "heading": 511,
        "timestamp": "1790789850795"
      }
    }
  ]
}